SL-8 R/B                
1 19257U 88053B   26083.33412567  .00000321  00000+0  11233-3 0  9996
2 19257  74.0451  85.4695 0021522 262.8340 199.3922 14.38925560978700
COSMOS 1975             
1 19573U 88093A   26083.13041627  .00006970  00000+0  25138-3 0  9999
2 19573  82.5166 103.1838 0013238 116.7399 243.5197 15.28259600 21611
SL-14 R/B               
1 19574U 88093B   26083.22122615  .00000600  00000+0  66200-4 0  9997
2 19574  82.5333  28.4039 0020524 354.6351 125.4614 14.85673352  3176
SL-16 R/B               
1 19650U 88102B   26083.17315015 -.00000240  00000+0 -96819-4 0  9996
2 19650  70.9981 121.0233 0014929 339.3961  20.6558 14.16154936928946
INTERCOSMOS 24          
1 20261U 89080A   26083.25901716  .00000553  00000+0  16407-3 0  9999
2 20261  82.6013  94.9139 1186768 258.9709  87.5948 12.59577120668634
SL-14 R/B               
1 20262U 89080C   26083.19931452  .00000436  00000+0  12359-3 0  9995
2 20262  82.5965 163.8757 1230861 151.6004 215.8210 12.50508057661964
DELTA 1 R/B             
1 20323U 89089B   26083.17467592  .00000324  00000+0  88471-4 0  9994
2 20323  97.0695 288.3082 0070666  77.1246 283.7835 14.50674607897832
ARIANE 40 R/B           
1 20443U 90005H   26083.12865449  .00000268  00000+0  98764-4 0  9998
2 20443  98.3053 143.3578 0010747 155.6674 204.5024 14.39879583894888
DELTA 2 R/B(1)          
1 20453U 90008B   26082.29022841  .00073697  00000+0  82029-3 0  9992
2 20453  35.6034  85.4758 0079944  25.1791 335.2813 15.57716328928258
COSMOS 2058             
1 20465U 90010A   26083.14732049  .00004649  00000+0  27326-3 0  9991
2 20465  82.4683  33.1809 0007514 289.6206  70.4212 15.11446221944420
SL-14 R/B               
1 20466U 90010B   26083.18786114  .00000466  00000+0  53621-4 0  9999
2 20466  82.4990 253.7659 0018405 250.7491 109.1733 14.83581396930638
SL-14 R/B               
1 20511U 90018B   26083.28712144  .00000486  00000+0  57980-4 0  9995
2 20511  82.5229 209.4475 0017247  47.6911 312.5762 14.82159091924741
HST                     
1 20580U 90037B   26083.29665413  .00006906  00000+0  22540-3 0  9995
2 20580  28.4720 300.3408 0001498 295.0290  65.0150 15.29703540775559
SL-16 R/B               
1 20625U 90046B   26083.25971694  .00000167  00000+0  11056-3 0  9995
2 20625  70.9954 267.3118 0016265 280.5356  79.3934 14.15013222850456
COSMOS 2084             
1 20663U 90055A   26082.93428349  .00002486  00000+0  18450-3 0  9996
2 20663  62.7894 286.9913 0014854 194.1057 165.9631 15.05725105938464
SL-6 R/B(2)             
1 20666U 90055D   26083.06945106  .00002318  00000+0  18174-3 0  9996
2 20666  62.7830 204.9464 0027158 350.3892   9.6684 15.03662441940356
SL-8 R/B                
1 20775U 90078B   26083.15483907  .00012704  00000+0  37589-3 0  9999
2 20775  82.9020 238.2941 0359239 325.2582  32.5635 14.89510297811450
